{"type": "FeatureCollection", "features": [ {"type": "Feature", "properties": {"norad_id": 66917, "name": "HULIANWANG DIGUI-107", "group": "last-30-days", "lat": -29.6028274836571, "lon": 64.00448330039393, "alt_km": 879.3682135530626, "timestamp": "2025-12-18T19:29:51.288298+00:00", "meta": {"OBJECT_NAME": "HULIANWANG DIGUI-107", "OBJECT_ID": "2025-285C", "EPOCH": "2025-12-18T07:43:38.460288", "MEAN_MOTION": 14.03661898, "ECCENTRICITY": 0.00074679, "INCLINATION": 50.0022, "RA_OF_ASC_NODE": 94.4912, "ARG_OF_PERICENTER": 304.0473, "MEAN_ANOMALY": 55.9721, "EPHEMERIS_TYPE": 0, "CLASSIFICATION_TYPE": "U", "NORAD_CAT_ID": 66917, "ELEMENT_SET_NO": 999, "REV_AT_EPOCH": 169, "BSTAR": -2.0341085e-05, "MEAN_MOTION_DOT": -1.84e-06, "MEAN_MOTION_DDOT": 0}, "tle": {"line1": "1 66917U 25285C   25352.32197292 -.00000184  00000+0 -20341-4 0  9991", "line2": "2 66917  50.0022  94.4912 0007467 304.0473  55.9721 14.03661898  1695"}}, "geometry": {"type": "Point", "coordinates": [64.00448330039393, -29.6028274836571]}}, {"type": "Feature", "properties": {"norad_id": 66918, "name": "HULIANWANG DIGUI-108", "group": "last-30-days", "lat": -26.6112531084407, "lon": 67.61707690127861, "alt_km": 880.2474804730955, "timestamp": "2025-12-18T19:29:51.288310+00:00", "meta": {"OBJECT_NAME": "HULIANWANG DIGUI-108", "OBJECT_ID": "2025-285D", "EPOCH": "2025-12-18T07:42:22.066272", "MEAN_MOTION": 14.03600941, "ECCENTRICITY": 0.00065942, "INCLINATION": 50.0044, "RA_OF_ASC_NODE": 94.4901, "ARG_OF_PERICENTER": 298.608, "MEAN_ANOMALY": 61.4161, "EPHEMERIS_TYPE": 0, "CLASSIFICATION_TYPE": "U", "NORAD_CAT_ID": 66918, "ELEMENT_SET_NO": 999, "REV_AT_EPOCH": 169, "BSTAR": -1.1917262e-05, "MEAN_MOTION_DOT": -1.7e-06, "MEAN_MOTION_DDOT": 0}, "tle": {"line1": "1 66918U 25285D   25352.32108873 -.00000170  00000+0 -11917-4 0  9993", "line2": "2 66918  50.0044  94.4901 0006594 298.6080  61.4161 14.03600941  1692"}}, "geometry": {"type": "Point", "coordinates": [67.61707690127861, -26.6112531084407]}}, {"type": "Feature", "properties": {"norad_id": 66919, "name": "HULIANWANG DIGUI-109", "group": "last-30-days", "lat": -22.166083051454315, "lon": 72.48413635216643, "alt_km": 878.3950693640718, "timestamp": "2025-12-18T19:29:51.288320+00:00", "meta": {"OBJECT_NAME": "HULIANWANG DIGUI-109", "OBJECT_ID": "2025-285E", "EPOCH": "2025-12-18T07:40:38.329248", "MEAN_MOTION": 14.03724969, "ECCENTRICITY": 0.0007883, "INCLINATION": 50.0068, "RA_OF_ASC_NODE": 94.488, "ARG_OF_PERICENTER": 311.0221, "MEAN_ANOMALY": 49.0001, "EPHEMERIS_TYPE": 0, "CLASSIFICATION_TYPE": "U", "NORAD_CAT_ID": 66919, "ELEMENT_SET_NO": 999, "REV_AT_EPOCH": 169, "BSTAR": -1.9956133e-05, "MEAN_MOTION_DOT": -1.83e-06, "MEAN_MOTION_DDOT": 0}, "tle": {"line1": "1 66919U 25285E   25352.31988807 -.00000183  00000+0 -19956-4 0  9991", "line2": "2 66919  50.0068  94.4880 0007883 311.0221  49.0001 14.03724969  1696"}}, "geometry": {"type": "Point", "coordinates": [72.48413635216643, -22.166083051454315]}}, {"type": "Feature", "properties": {"norad_id": 66920, "name": "HULIANWANG DIGUI-110", "group": "last-30-days", "lat": -18.772406765968626, "lon": 75.90400511822162, "alt_km": 880.0370153800923, "timestamp": "2025-12-18T19:29:51.288330+00:00", "meta": {"OBJECT_NAME": "HULIANWANG DIGUI-110", "OBJECT_ID": "2025-285F", "EPOCH": "2025-12-18T07:39:17.487360", "MEAN_MOTION": 14.03681641, "ECCENTRICITY": 0.00055725, "INCLINATION": 50.0113, "RA_OF_ASC_NODE": 94.4884, "ARG_OF_PERICENTER": 308.2158, "MEAN_ANOMALY": 51.8244, "EPHEMERIS_TYPE": 0, "CLASSIFICATION_TYPE": "U", "NORAD_CAT_ID": 66920, "ELEMENT_SET_NO": 999, "REV_AT_EPOCH": 169, "BSTAR": 0.00016880328, "MEAN_MOTION_DOT": 1.15e-06, "MEAN_MOTION_DDOT": 0}, "tle": {"line1": "1 66920U 25285F   25352.31895240  .00000115  00000+0  16880-3 0  9996", "line2": "2 66920  50.0113  94.4884 0005572 308.2158  51.8244 14.03681641  1692"}}, "geometry": {"type": "Point", "coordinates": [75.90400511822162, -18.772406765968626]}}, {"type": "Feature", "properties": {"norad_id": 66921, "name": "HULIANWANG DIGUI-111", "group": "last-30-days", "lat": -15.200512678844708, "lon": 79.29275508142712, "alt_km": 879.0296876355123, "timestamp": "2025-12-18T19:29:51.288342+00:00", "meta": {"OBJECT_NAME": "HULIANWANG DIGUI-111", "OBJECT_ID": "2025-285G", "EPOCH": "2025-12-17T23:05:16.535616", "MEAN_MOTION": 14.0363017, "ECCENTRICITY": 0.00067288, "INCLINATION": 50.0124, "RA_OF_ASC_NODE": 95.9368, "ARG_OF_PERICENTER": 314.3427, "MEAN_ANOMALY": 45.6925, "EPHEMERIS_TYPE": 0, "CLASSIFICATION_TYPE": "U", "NORAD_CAT_ID": 66921, "ELEMENT_SET_NO": 999, "REV_AT_EPOCH": 164, "BSTAR": -1.7804653e-05, "MEAN_MOTION_DOT": -1.8e-06, "MEAN_MOTION_DDOT": 0}, "tle": {"line1": "1 66921U 25285G   25351.96199694 -.00000180  00000+0 -17805-4 0  9990", "line2": "2 66921  50.0124  95.9368 0006728 314.3427  45.6925 14.03630170  1642"}}, "geometry": {"type": "Point", "coordinates": [79.29275508142712, -15.200512678844708]}}, {"type": "Feature", "properties": {"norad_id": 66922, "name": "HULIANWANG DIGUI-112", "group": "last-30-days", "lat": -11.496771084556055, "lon": 82.6276787609701, "alt_km": 878.6421747866962, "timestamp": "2025-12-18T19:29:51.288355+00:00", "meta": {"OBJECT_NAME": "HULIANWANG DIGUI-112", "OBJECT_ID": "2025-285H", "EPOCH": "2025-12-18T07:36:30.083904", "MEAN_MOTION": 14.03660786, "ECCENTRICITY": 0.00064812, "INCLINATION": 50.009, "RA_OF_ASC_NODE": 94.4749, "ARG_OF_PERICENTER": 322.5841, "MEAN_ANOMALY": 37.4612, "EPHEMERIS_TYPE": 0, "CLASSIFICATION_TYPE": "U", "NORAD_CAT_ID": 66922, "ELEMENT_SET_NO": 999, "REV_AT_EPOCH": 169, "BSTAR": -1.789144e-06, "MEAN_MOTION_DOT": -1.54e-06, "MEAN_MOTION_DDOT": 0}, "tle": {"line1": "1 66922U 25285H   25352.31701486 -.00000154  00000+0 -17891-5 0  9996", "line2": "2 66922  50.0090  94.4749 0006481 322.5841  37.4612 14.03660786  1692"}}, "geometry": {"type": "Point", "coordinates": [82.6276787609701, -11.496771084556055]}}, {"type": "Feature", "properties": {"norad_id": 66923, "name": "HULIANWANG DIGUI-113", "group": "last-30-days", "lat": -7.080146024477065, "lon": 86.46409575441963, "alt_km": 878.2072484938608, "timestamp": "2025-12-18T19:29:51.288365+00:00", "meta": {"OBJECT_NAME": "HULIANWANG DIGUI-113", "OBJECT_ID": "2025-285J", "EPOCH": "2025-12-18T07:35:01.191264", "MEAN_MOTION": 14.040024, "ECCENTRICITY": 0.00052315, "INCLINATION": 50.01, "RA_OF_ASC_NODE": 94.4708, "ARG_OF_PERICENTER": 315.5251, "MEAN_ANOMALY": 44.5233, "EPHEMERIS_TYPE": 0, "CLASSIFICATION_TYPE": "U", "NORAD_CAT_ID": 66923, "ELEMENT_SET_NO": 999, "REV_AT_EPOCH": 169, "BSTAR": 0.00018208635, "MEAN_MOTION_DOT": 1.38e-06, "MEAN_MOTION_DDOT": 0}, "tle": {"line1": "1 66923U 25285J   25352.31598601  .00000138  00000+0  18209-3 0  9992", "line2": "2 66923  50.0100  94.4708 0005231 315.5251  44.5233 14.04002400  1691"}}, "geometry": {"type": "Point", "coordinates": [86.46409575441963, -7.080146024477065]}}, {"type": "Feature", "properties": {"norad_id": 66924, "name": "CZ-8A R/B", "group": "last-30-days", "lat": 14.347704801580493, "lon": 102.70250154182014, "alt_km": 815.7251323564242, "timestamp": "2025-12-18T19:29:51.288375+00:00", "meta": {"OBJECT_NAME": "CZ-8A R/B", "OBJECT_ID": "2025-285K", "EPOCH": "2025-12-18T05:59:46.227840", "MEAN_MOTION": 14.30503972, "ECCENTRICITY": 0.01192776, "INCLINATION": 50.0073, "RA_OF_ASC_NODE": 92.6994, "ARG_OF_PERICENTER": 126.1691, "MEAN_ANOMALY": 235.0329, "EPHEMERIS_TYPE": 0, "CLASSIFICATION_TYPE": "U", "NORAD_CAT_ID": 66924, "ELEMENT_SET_NO": 999, "REV_AT_EPOCH": 171, "BSTAR": 5.3862849e-05, "MEAN_MOTION_DOT": -1.4e-07, "MEAN_MOTION_DDOT": 0}, "tle": {"line1": "1 66924U 25285K   25352.24984060 -.00000014  00000+0  53863-4 0  9993", "line2": "2 66924  50.0073  92.6994 0119277 126.1691 235.0329 14.30503972  1713"}}, "geometry": {"type": "Point", "coordinates": [102.70250154182014, 14.347704801580493]}}, {"type": "Feature", "properties": {"norad_id": 66925, "name": "STARLINK-35945", "group": "last-30-days", "lat": -25.12628878237143, "lon": -0.6609396100338522, "alt_km": 328.59308713845894, "timestamp": "2025-12-18T19:29:51.288385+00:00", "meta": {"OBJECT_NAME": "STARLINK-35945", "OBJECT_ID": "2025-286A", "EPOCH": "2025-12-18T06:00:02.999808", "MEAN_MOTION": 15.83618123, "ECCENTRICITY": 6.791e-05, "INCLINATION": 53.1566, "RA_OF_ASC_NODE": 22.7557, "ARG_OF_PERICENTER": 93.4623, "MEAN_ANOMALY": 268.3035, "EPHEMERIS_TYPE": 0, "CLASSIFICATION_TYPE": "U", "NORAD_CAT_ID": 66925, "ELEMENT_SET_NO": 999, "REV_AT_EPOCH": 287, "BSTAR": -0.0066315268, "MEAN_MOTION_DOT": -0.01309892, "MEAN_MOTION_DDOT": 0}, "tle": {"line1": "1 66925U 25286A   25352.25003472 -.01309892  00000+0 -66315-2 0  9997", "line2": "2 66925  53.1566  22.7557 0000679  93.4623 268.3035 15.83618123  2875"}}, "geometry": {"type": "Point", "coordinates": [-0.6609396100338522, -25.12628878237143]}}, {"type": "Feature", "properties": {"norad_id": 66926, "name": "STARLINK-35942", "group": "last-30-days", "lat": -21.64457746570345, "lon": 2.6077014875214846, "alt_km": 328.26477285977126, "timestamp": "2025-12-18T19:29:51.288397+00:00", "meta": {"OBJECT_NAME": "STARLINK-35942", "OBJECT_ID": "2025-286B", "EPOCH": "2025-12-18T06:00:02.999808", "MEAN_MOTION": 15.83623073, "ECCENTRICITY": 6.517e-05, "INCLINATION": 53.1565, "RA_OF_ASC_NODE": 22.7459, "ARG_OF_PERICENTER": 86.6508, "MEAN_ANOMALY": 279.7318, "EPHEMERIS_TYPE": 0, "CLASSIFICATION_TYPE": "U", "NORAD_CAT_ID": 66926, "ELEMENT_SET_NO": 999, "REV_AT_EPOCH": 287, "BSTAR": -0.0067176274, "MEAN_MOTION_DOT": -0.01325059, "MEAN_MOTION_DDOT": 0}, "tle": {"line1": "1 66926U 25286B   25352.25003472 -.01325059  00000+0 -67176-2 0  9997", "line2": "2 66926  53.1565  22.7459 0000651  86.6508 279.7318 15.83623073  2872"}}, "geometry": {"type": "Point", "coordinates": [2.6077014875214846, -21.64457746570345]}}]}